NORAD_CAT_ID,OBJECT_NAME,OBJECT_TYPE,EPOCH,MEAN_MOTION,ECCENTRICITY,INCLINATION,RA_OF_ASC_NODE,ARG_OF_PERICENTER,MEAN_ANOMALY,BSTAR,MEAN_MOTION_DOT,MEAN_MOTION_DDOT,TLE_LINE0,TLE_LINE1,TLE_LINE2,SEMIMAJOR_AXIS,PERIOD,APOGEE,PERIGEE,DECAYED
52621.0,STARLINK-3984,PAYLOAD,2023-08-08 08:22:59,15.08849297,0.000114,53.2166,188.4282,92.8415,267.2707,0.00015864,2.238e-05,0.0,0 STARLINK-3984,1 52621U 22052Z   23220.34929579  .00002238  00000-0  15864-3 0  9996,2 52621  53.2166 188.4282 0001140  92.8415 267.2707 15.08849297 68805,6917.852,95.437,540.506,538.928,0.0
52621.0,STARLINK-3984,PAYLOAD,2023-08-08 14:44:32,15.08840413,0.0001103,53.2164,187.2387,89.755,270.3569,0.00011773,1.586e-05,0.0,0 STARLINK-3984,1 52621U 22052Z   23220.61426245  .00001586  00000-0  11773-3 0  9998,2 52621  53.2164 187.2387 0001103  89.7550 270.3569 15.08840413 68846,6917.879,95.438,540.507,538.981,0.0
52621.0,STARLINK-3984,PAYLOAD,2023-08-08 22:41:28,15.08830964,0.0001312,53.2182,185.754,96.8912,263.223,4.5955e-05,4.43e-06,0.0,0 STARLINK-3984,1 52621U 22052Z   23220.94547234  .00000443  00000-0  45955-4 0  9997,2 52621  53.2182 185.7540 0001312  96.8912 263.2230 15.08830964 68894,6917.908,95.438,540.681,538.865,0.0
52621.0,STARLINK-3984,PAYLOAD,2023-08-09 22:32:15,15.08840368,0.0001315,53.2172,181.2914,90.0108,270.1035,-2.749e-06,-3.32e-06,0.0,0 STARLINK-3984,1 52621U 22052Z   23221.93906967 -.00000332  00000-0 -27490-5 0  9993,2 52621  53.2172 181.2914 0001315  90.0108 270.1035 15.08840368 69042,6917.879,95.438,540.654,538.835,0.0
52621.0,STARLINK-3984,PAYLOAD,2023-08-11 03:09:12,15.08823823,0.0001168,53.2149,175.9377,88.7677,271.3449,0.00029022,4.332e-05,0.0,0 STARLINK-3984,1 52621U 22052Z   23223.13139260  .00004332  00000-0  29022-3 0  9994,2 52621  53.2149 175.9377 0001168  88.7677 271.3449 15.08823823 69229,6917.93,95.439,540.603,538.987,0.0
52621.0,STARLINK-3984,PAYLOAD,2023-08-11 06:19:58,15.08839276,0.0001235,53.2152,175.3435,85.1829,274.9304,0.00011577,1.555e-05,0.0,0 STARLINK-3984,1 52621U 22052Z   23223.26386598  .00001555  00000-0  11577-3 0  9996,2 52621  53.2152 175.3435 0001235  85.1829 274.9304 15.08839276 69247,6917.883,95.438,540.602,538.893,0.0
52621.0,STARLINK-3984,PAYLOAD,2023-08-11 14:16:56,15.08811296,0.0001932,53.2147,173.8568,78.8389,281.282,-0.00015108,-2.69e-05,0.0,0 STARLINK-3984,1 52621U 22052Z   23223.59509714 -.00002690  00000-0 -15108-3 0  9996,2 52621  53.2147 173.8568 0001932  78.8389 281.2820 15.08811296 69296,6917.968,95.439,541.17,538.497,0.0
52621.0,STARLINK-3984,PAYLOAD,2023-08-12 03:00:00,15.08838313,0.0001263,53.2164,171.4786,81.0898,279.0237,6.0015e-05,6.67e-06,0.0,0 STARLINK-3984,1 52621U 22052Z   23224.12500140  .00000667  00000-0  60015-4 0  9998,2 52621  53.2164 171.4786 0001263  81.0898 279.0237 15.08838313 69374,6917.886,95.438,540.624,538.877,0.0
52621.0,STARLINK-3984,PAYLOAD,2023-08-12 14:07:41,15.08846491,0.0001271,53.2174,169.3988,74.3102,285.8031,0.00016542,2.346e-05,0.0,0 STARLINK-3984,1 52621U 22052Z   23224.58867384  .00002346  00000-0  16542-3 0  9995,2 52621  53.2174 169.3988 0001271  74.3102 285.8031 15.08846491 69448,6917.861,95.437,540.605,538.846,0.0
52621.0,STARLINK-3984,PAYLOAD,2023-08-13 02:50:45,15.08860905,0.0001271,53.2169,167.0189,79.5674,280.5461,0.00027328,4.066e-05,0.0,0 STARLINK-3984,1 52621U 22052Z   23225.11857973  .00004066  00000-0  27328-3 0  9993,2 52621  53.2169 167.0189 0001271  79.5674 280.5461 15.08860905 69525,6917.816,95.436,540.561,538.802,0.0
52621.0,STARLINK-3984,PAYLOAD,2023-08-13 15:33:51,15.08837917,0.0002041,53.2134,164.6405,77.4499,282.6721,0.00033055,4.976e-05,0.0,0 STARLINK-3984,1 52621U 22052Z   23225.64851325  .00004976  00000-0  33055-3 0  9990,2 52621  53.2134 164.6405 0002041  77.4499 282.6721 15.08837917 69607,6917.887,95.438,541.164,538.34,0.0
52621.0,STARLINK-3984,PAYLOAD,2023-08-14 02:41:34,15.08825575,0.0001251,53.2176,162.5598,80.0198,280.0935,0.00026062,3.861e-05,0.0,0 STARLINK-3984,1 52621U 22052Z   23226.11220392  .00003861  00000-0  26062-3 0  9999,2 52621  53.2176 162.5598 0001251  80.0198 280.0935 15.08825575 69674,6917.924,95.438,540.655,538.924,0.0
52621.0,STARLINK-3984,PAYLOAD,2023-08-14 05:52:20,15.08847559,0.0001268,53.2172,161.9636,88.612,271.5017,1.321e-05,-7.8e-07,0.0,0 STARLINK-3984,1 52621U 22052Z   23226.24467680 -.00000078  00000-0  13210-4 0  9996,2 52621  53.2172 161.9636 0001268  88.6120 271.5017 15.08847559 69697,6917.857,95.437,540.599,538.845,0.0
52621.0,STARLINK-3984,PAYLOAD,2023-08-15 18:26:12,15.08839235,0.0001188,53.2161,155.1245,93.3627,266.7501,2.755e-05,1.51e-06,0.0,0 STARLINK-3984,1 52621U 22052Z   23227.76819549  .00000151  00000-0  27550-4 0  9992,2 52621  53.2161 155.1245 0001188  93.3627 266.7501 15.08839235 69924,6917.883,95.438,540.57,538.926,0.0
52621.0,STARLINK-3984,PAYLOAD,2023-08-17 02:13:54,15.08848184,0.0001416,53.2152,149.1776,91.1829,268.9325,3.9886e-05,3.47e-06,0.0,0 STARLINK-3984,1 52621U 22052Z   23229.09299324  .00000347  00000-0  39886-4 0  9995,2 52621  53.2152 149.1776 0001416  91.1829 268.9325 15.08848184 70125,6917.855,95.437,540.7,538.741,0.0
52621.0,STARLINK-3984,PAYLOAD,2023-08-18 02:04:41,15.08846446,0.0001359,53.2175,144.7164,81.7541,278.3606,8.8636e-05,1.123e-05,0.0,0 STARLINK-3984,1 52621U 22052Z   23230.08659323  .00001123  00000-0  88636-4 0  9995,2 52621  53.2175 144.7164 0001359  81.7541 278.3606 15.08846446 70276,6917.861,95.437,540.666,538.786,0.0
52621.0,STARLINK-3984,PAYLOAD,2023-08-19 00:20:05,15.08842677,0.0001294,53.2162,140.5516,100.533,259.5808,-1.1267e-06,-3.06e-06,0.0,0 STARLINK-3984,1 52621U 22052Z   23231.01395640 -.00000306  00000-0 -11267-5 0  9999,2 52621  53.2162 140.5516 0001294 100.5330 259.5808 15.08842677 70414,6917.872,95.437,540.632,538.842,0.0
52621.0,STARLINK-3984,PAYLOAD,2023-08-20 03:21:39,15.08838763,0.0001419,53.2168,135.4967,100.8612,259.254,-4.8302e-06,-3.65e-06,0.0,0 STARLINK-3984,1 52621U 22052Z   23232.14004180 -.00000365  00000-0 -48302-5 0  9995,2 52621  53.2168 135.4967 0001419 100.8612 259.2540 15.08838763 70587,6917.884,95.438,540.731,538.768,0.0
52621.0,STARLINK-3984,PAYLOAD,2023-08-21 00:01:39,15.08853522,0.0001444,53.2181,131.6313,97.9583,262.1573,0.00012453,1.695e-05,0.0,0 STARLINK-3984,1 52621U 22052Z   23233.00115032  .00001695  00000-0  12453-3 0  9991,2 52621  53.2181 131.6313 0001444  97.9583 262.1573 15.08853522 70710,6917.839,95.437,540.703,538.705,0.0
52621.0,STARLINK-3984,PAYLOAD,2023-08-22 01:27:50,15.08841453,0.000152,53.2171,126.8739,88.6557,271.4609,4.5702e-05,4.39e-06,0.0,0 STARLINK-3984,1 52621U 22052Z   23234.06100052  .00000439  00000-0  45702-4 0  9993,2 52621  53.2171 126.8739 0001520  88.6557 271.4609 15.08841453 70870,6917.876,95.437,540.792,538.689,0.0
52621.0,STARLINK-3984,PAYLOAD,2023-08-24 02:44:47,15.08841298,0.0001526,53.2181,117.6556,83.6939,276.4227,0.00017122,2.438e-05,0.0,0 STARLINK-3984,1 52621U 22052Z   23236.11444318  .00002438  00000-0  17122-3 0  9992,2 52621  53.2181 117.6556 0001526  83.6939 276.4227 15.08841298 70802,6917.876,95.437,540.797,538.686,0.0
52621.0,STARLINK-3984,PAYLOAD,2023-08-24 23:24:48,15.08842331,0.0001394,53.2169,113.7891,82.0494,278.0656,1.7762e-06,-2.6e-06,0.0,0 STARLINK-3984,1 52621U 22052Z   23236.97556333 -.00000260  00000-0  17762-5 0  9991,2 52621  53.2169 113.7891 0001394  82.0494 278.0656 15.08842331 70936,6917.873,95.437,540.703,538.774,0.0
52621.0,STARLINK-3984,PAYLOAD,2023-08-25 21:40:12,15.08840472,0.0001357,53.2162,109.6267,85.318,274.7967,5.0226e-05,5.12e-06,0.0,0 STARLINK-3984,1 52621U 22052Z   23237.90292560  .00000512  00000-0  50226-4 0  9994,2 52621  53.2162 109.6267 0001357  85.3180 274.7967 15.08840472 71075,6917.879,95.438,540.683,538.805,0.0
52621.0,STARLINK-3984,PAYLOAD,2023-08-26 00:50:58,15.08845874,0.0001347,53.2173,109.0325,87.2663,272.8484,8.8802e-05,1.126e-05,0.0,0 STARLINK-3984,1 52621U 22052Z   23238.03540367  .00001126  00000-0  88802-4 0  9993,2 52621  53.2173 109.0325 0001347  87.2663 272.8484 15.08845874 71470,6917.862,95.437,540.659,538.796,0.0
52621.0,STARLINK-3984,PAYLOAD,2023-08-26 18:20:13,15.08840882,0.0001523,53.217,105.7627,72.031,288.0848,3.1339e-05,2.11e-06,0.0,0 STARLINK-3984,1 52621U 22052Z   23238.76405057  .00000211  00000-0  31339-4 0  9996,2 52621  53.2170 105.7627 0001523  72.0310 288.0848 15.08840882 71581,6917.878,95.437,540.796,538.689,0.0
52621.0,STARLINK-3984,PAYLOAD,2023-08-26 21:31:00,15.08839315,0.0001491,53.2169,105.1689,74.0163,286.0994,9.9884e-05,1.302e-05,0.0,0 STARLINK-3984,1 52621U 22052Z   23238.89652909  .00001302  00000-0  99884-4 0  9991,2 52621  53.2169 105.1689 0001491  74.0163 286.0994 15.08839315 71223,6917.882,95.438,540.779,538.716,0.0
52621.0,STARLINK-3984,PAYLOAD,2023-08-27 00:41:46,15.08828211,0.0001557,53.2171,104.5731,77.087,283.0296,0.00031042,4.654e-05,0.0,0 STARLINK-3984,1 52621U 22052Z   23239.02901033  .00004654  00000-0  31042-3 0  9996,2 52621  53.2171 104.5731 0001557  77.0870 283.0296 15.08828211 71245,6917.916,95.438,540.859,538.704,0.0
52621.0,STARLINK-3984,PAYLOAD,2023-08-27 21:21:46,15.08845132,0.0001404,53.2173,100.7062,83.1548,276.9604,7.7138e-05,9.4e-06,0.0,0 STARLINK-3984,1 52621U 22052Z   23239.89012483  .00000940  00000-0  77138-4 0  9994,2 52621  53.2173 100.7062 0001404  83.1548 276.9604 15.08845132 71372,6917.865,95.437,540.701,538.758,0.0
52621.0,STARLINK-3984,PAYLOAD,2023-08-28 00:32:32,15.0884597,0.0001398,53.2173,100.1114,84.0944,276.0207,8.1158e-05,1.004e-05,0.0,0 STARLINK-3984,1 52621U 22052Z   23240.02260376  .00001004  00000-0  81158-4 0  9996,2 52621  53.2173 100.1114 0001398  84.0944 276.0207 15.08845970 71770,6917.862,95.437,540.694,538.76,0.0
52621.0,STARLINK-3984,PAYLOAD,2023-08-28 21:12:34,15.08840381,0.000141,53.2176,96.2439,94.9532,265.1621,2.8445e-05,1.65e-06,0.0,0 STARLINK-3984,1 52621U 22052Z   23240.88372791  .00000165  00000-0  28445-4 0  9992,2 52621  53.2176  96.2439 0001410  94.9532 265.1621 15.08840381 71529,6917.879,95.438,540.72,538.769,0.0
